CORVUS BC2              
1 42846U 17042X   18136.54744520  .00000370  00000-0  42015-4 0  9994
2 42846  97.5999  40.5585 0008421 308.2744  51.7717 14.91806365 45655
CORVUS BC1              
1 42847U 17042Y   18136.79548991  .00000215  00000-0  26564-4 0  9995
2 42847  97.5999  40.8424 0008006 307.3025  52.7464 14.91905232 45688
SILU-1 (SILKROAD 1)     
1 42903U 17021F   18136.79280093  .00021577  00000-0  17413-3 0  9997
2 42903  42.7771 158.2056 0010358  75.0264 273.9000 15.70358396 44989
MIRATA                  
1 43015U 17073C   18136.33997068  .00002082  00000-0  16903-3 0  9999
2 43015  97.7037  68.6965 0259089  15.5661 345.3329 14.78055419 26433
ASTERIA                 
1 43020U 98067NH  18136.54148085  .00007019  00000-0  95956-4 0  9998
2 43020  51.6399 173.2398 0003303  50.6569 309.4715 15.58672742 27552
DELLINGR (RBLE)         
1 43021U 98067NJ  18136.55910835  .00004846  00000-0  72174-4 0  9992
2 43021  51.6378 174.0918 0003005  46.2103 313.9137 15.57146956 27540
TECHEDSAT 6             
1 43026U 98067NK  18135.04917276  .24108771  12366-4  25107-2 0  9998
2 43026  51.6059 164.5237 0004943 311.1143  50.3672 16.36895032 27437
OSIRIS-3U               
1 43027U 98067NL  18136.51351992  .00019818  00000-0  22130-3 0  9998
2 43027  51.6361 170.7800 0005009  25.4654 334.6586 15.62762844 27462
AEROCUBE 7B             
1 43042U 17071F   18136.55702306  .00003371  00000-0  97028-4 0  9990
2 43042  51.6378 195.5868 0005374 145.6282 214.5050 15.38673966 24731
AEROCUBE 7C             
1 43043U 17071G   18136.55700262  .00002539  00000-0  75623-4 0  9992
2 43043  51.6384 195.5908 0005266 147.4131 212.7179 15.38675321 24703
CHEFSAT                 
1 43044U 17071H   18136.64774747  .00003776  00000-0  10482-3 0  9997
2 43044  51.6386 194.7099 0005119 147.3124 212.8178 15.39458459 24720
ASGARDIA 1              
1 43049U 17071N   18136.41065473  .00002262  00000-0  68175-4 0  9998
2 43049  51.6386 196.1184 0002610 161.7087 198.3992 15.38811722 24689
ISARA                   
1 43050U 17071P   18136.64703584  .00003808  00000-0  10607-3 0  9990
2 43050  51.6382 194.7050 0002423 158.9493 201.1591 15.39321121 24716
FAUNA                   
1 43052U 17071R   18136.46672528  .00002316  00000-0  69304-4 0  9997
2 43052  51.6389 195.7493 0002553 157.6002 202.5094 15.38933501 24682
CORVUS BC3              
1 43118U 18004H   18136.85189172  .00000950  00000-0  44452-4 0  9997
2 43118  97.5355 199.3761 0010146 196.0778 164.0137 15.22193447 18941
MICROMAS-2A             
1 43131U 18004W   18136.23134952  .00001950  00000-0  86744-4 0  9991
2 43131  97.5359 198.8302 0009282 200.4834 159.6032 15.22684228 18853
GOMX4-B                 
1 43196U 18015E   18136.55210807  .00000425  00000-0  20678-4 0  9993
2 43196  97.3420 266.1463 0017596 268.5616  91.3608 15.23531865 15710
GOMX4-A                 
1 43197U 18015F   18136.83312589  .00000557  00000-0  26115-4 0  9993
2 43197  97.3418 266.4209 0017741 269.4259 193.8603 15.23626733 15761
UBAKUSAT                
1 43466U 98067NP  18136.38428625  .00010503  00000-0  16056-3 0  9990
2 43466  51.6396 177.2160 0001382  20.9154  72.4250 15.54996435   757
1KUNS-PF                
1 43467U 98067NQ  18136.38408863  .00008265  00000-0  12759-3 0  9991
2 43467  51.6406 177.2161 0003168  19.9028  73.6993 15.55062391   756
IRAZU                   
1 43468U 98067NR  18136.36751007  .00011296  00000-0  17185-3 0  9997
2 43468  51.6374 177.2954 0001276  11.3486 348.7532 15.55043073100733
